[Satellite]
VERSION=1.1
NAME=SES-6
NICKNAME=SES-6
TLE1=1 39172U 13026A   17186.15676378 -.00000265  00000-0  00000-0 0  9994
TLE2=2 39172   0.0259 334.3699 0002218 124.1331 200.7676  1.00271953 14950
